STARLINK-31192          
1 58794U 24012H   26068.30699284 -.00004968  00000+0 -17110-3 0  9996
2 58794  43.0023 167.7303 0001036 197.5270 162.5546 15.27584226121178
COSMOS 2576             
1 59773U 24092A   26068.82603826  .00015211  00000+0  56283-3 0  9991
2 59773  97.4253 186.0053 0005946 159.7731 200.3745 15.27760963101271
